{
    "satellites": [
        {
            "name": "starlink381",
            "title": "Starlink-381 (G17-36) (new)",
            "tle": [
                "1 70583C 26097Z   26121.45256944  .00796630  00000+0  11433-2 0  1219",
                "2 70583  97.2851 316.0735 0010537 256.4174  40.4142 16.04924741    11"
            ],
            "stdMag": 5,
            "noradId": "70583",
            "intDes": null,
            "tleUrl": "http://celestrak.org/NORAD/elements/supplemental/sup-gp.php?FILE=starlink&FORMAT=tle",
            "launchDate": "2026-04-30T02:42:49.000Z",
            "active": true,
            "batch": [
                {
                    "noradId": "70583",
                    "tle": [
                        "1 70583C 26097Z   26121.45256944  .00796630  00000+0  11433-2 0  1219",
                        "2 70583  97.2851 316.0735 0010537 256.4174  40.4142 16.04924741    11"
                    ]
                },
                {
                    "noradId": "70580",
                    "tle": [
                        "1 70580C 26097W   26121.40048611  .00806040  00000+0  11606-2 0  1210",
                        "2 70580  97.2852 316.0164 0010435 256.3731  99.7565 16.04868913    14"
                    ]
                },
                {
                    "noradId": "70582",
                    "tle": [
                        "1 70582C 26097Y   26121.41159722  .00816380  00000+0  11743-2 0  1219",
                        "2 70582  97.2852 316.0287 0010504 256.2522 163.9862 16.04878382    11"
                    ]
                },
                {
                    "noradId": "70581",
                    "tle": [
                        "1 70581C 26097X   26121.39423611  .00824870  00000+0  11880-2 0  1211",
                        "2 70581  97.2852 316.0096 0010485 256.5628  63.3888 16.04854855    16"
                    ]
                },
                {
                    "noradId": "70579",
                    "tle": [
                        "1 70579C 26097V   26121.40604167  .00791880  00000+0  11425-2 0  1216",
                        "2 70579  97.2850 316.0223 0010485 256.1744 131.9114 16.04842638    18"
                    ]
                },
                {
                    "noradId": "70578",
                    "tle": [
                        "1 70578C 26097U   26121.41159722  .00806780  00000+0  11632-2 0  1214",
                        "2 70578  97.2850 316.0284 0010510 256.3274 163.7909 16.04844630    12"
                    ]
                },
                {
                    "noradId": "70577",
                    "tle": [
                        "1 70577C 26097T   26121.39423611  .00809580  00000+0  11690-2 0  1216",
                        "2 70577  97.2851 316.0095 0010421 257.4777  62.3797 16.04821330    14"
                    ]
                },
                {
                    "noradId": "70576",
                    "tle": [
                        "1 70576C 26097S   26121.44701389  .00826400  00000+0  11865-2 0  1216",
                        "2 70576  97.2851 316.0674 0010504 258.0428   6.5406 16.04904896    14"
                    ]
                },
                {
                    "noradId": "70575",
                    "tle": [
                        "1 70575C 26097R   26121.41784722  .00821480  00000+0  11840-2 0  1210",
                        "2 70575  97.2852 316.0354 0010537 257.3949 198.7309 16.04843319    13"
                    ]
                },
                {
                    "noradId": "70574",
                    "tle": [
                        "1 70574C 26097Q   26121.44145833  .00818720  00000+0  11779-2 0  1210",
                        "2 70574  97.2852 316.0613 0010533 258.4061 334.0130 16.04873452    11"
                    ]
                },
                {
                    "noradId": "70573",
                    "tle": [
                        "1 70573C 26097P   26121.41159722  .00811300  00000+0  11725-2 0  1216",
                        "2 70573  97.2853 316.0285 0010461 257.5624 162.3684 16.04805575    18"
                    ]
                },
                {
                    "noradId": "70572",
                    "tle": [
                        "1 70572C 26097N   26121.45881944  .00802450  00000+0  11557-2 0  1216",
                        "2 70572  97.2853 316.0804 0010396 258.4045  74.1518 16.04868286    12"
                    ]
                },
                {
                    "noradId": "70571",
                    "tle": [
                        "1 70571C 26097M   26121.41784722  .00812910  00000+0  11751-2 0  1215",
                        "2 70571  97.2854 316.0354 0010513 258.0191 197.9399 16.04799002    11"
                    ]
                },
                {
                    "noradId": "70570",
                    "tle": [
                        "1 70570C 26097L   26121.41159722  .00815810  00000+0  11801-2 0  1218",
                        "2 70570  97.2854 316.0285 0010451 258.1359 161.7032 16.04787679    11"
                    ]
                },
                {
                    "noradId": "70569",
                    "tle": [
                        "1 70569C 26097K   26121.45256944  .00808250  00000+0  11659-2 0  1215",
                        "2 70569  97.2855 316.0735 0010414 259.1702  37.1868 16.04837682    15"
                    ]
                },
                {
                    "noradId": "70568",
                    "tle": [
                        "1 70568C 26097J   26121.40604167  .00804280  00000+0  11656-2 0  1219",
                        "2 70568  97.2855 316.0224 0010403 258.5525 129.1498 16.04763441    13"
                    ]
                },
                {
                    "noradId": "70567",
                    "tle": [
                        "1 70567C 26097H   26121.41784722  .00809300  00000+0  11728-2 0  1213",
                        "2 70567  97.2855 316.0354 0010492 258.6336 197.1723 16.04760221    14"
                    ]
                },
                {
                    "noradId": "70566",
                    "tle": [
                        "1 70566C 26097G   26121.40604167  .00815470  00000+0  11811-2 0  1213",
                        "2 70566  97.2856 316.0225 0010400 258.9515 128.7195 16.04768017    16"
                    ]
                },
                {
                    "noradId": "70565",
                    "tle": [
                        "1 70565C 26097F   26121.44701389  .00822370  00000+0  11877-2 0  1219",
                        "2 70565  97.2856 316.0674 0010450 260.0125   4.1453 16.04810030    16"
                    ]
                },
                {
                    "noradId": "70564",
                    "tle": [
                        "1 70564C 26097E   26121.42965278  .00805720  00000+0  11681-2 0  1218",
                        "2 70564  97.2856 316.0483 0010524 259.7187 264.1411 16.04754705    16"
                    ]
                },
                {
                    "noradId": "70563",
                    "tle": [
                        "1 70563C 26097D   26121.44145833  .00789410  00000+0  11457-2 0  1214",
                        "2 70563  97.2857 316.0613 0010475 260.1514 331.8069 16.04746385    12"
                    ]
                },
                {
                    "noradId": "70562",
                    "tle": [
                        "1 70562C 26097C   26121.45256944  .00793660  00000+0  11502-2 0  1213",
                        "2 70562  97.2857 316.0735 0010405 260.2948  35.8060 16.04769806    16"
                    ]
                },
                {
                    "noradId": "70561",
                    "tle": [
                        "1 70561C 26097B   26121.44701389  .00795410  00000+0  11545-2 0  1211",
                        "2 70561  97.2858 316.0674 0010438 260.5632   3.3955 16.04742496    16"
                    ]
                },
                {
                    "noradId": "70560",
                    "tle": [
                        "1 70560C 26097A   26121.40048611  .00797470  00000+0  11622-2 0  1212",
                        "2 70560  97.2858 316.0163 0010315 260.1662  95.1434 16.04677626    14"
                    ]
                }
            ]
        },
        {
            "name": "starlink380",
            "title": "Starlink-380 (G17-16) (new)",
            "tle": [
                "1 70539C 26094E   26121.42895833 -.01559600  00000+0 -23628-2 0  1216",
                "2 70539  97.2805 135.0049 0000955  76.5551 239.2133 16.05368262    10"
            ],
            "stdMag": 5,
            "noradId": "70539",
            "intDes": null,
            "tleUrl": "http://celestrak.org/NORAD/elements/supplemental/sup-gp.php?FILE=starlink&FORMAT=tle",
            "launchDate": "2026-04-26T14:37:09.000Z",
            "active": true,
            "batch": [
                {
                    "noradId": "70539",
                    "tle": [
                        "1 70539C 26094E   26121.42895833 -.01559600  00000+0 -23628-2 0  1216",
                        "2 70539  97.2805 135.0049 0000955  76.5551 239.2133 16.05368262    10"
                    ]
                }
            ]
        }
    ],
    "config": {}
}